{
  "type": "FeatureCollection",
  "features": [
    {
      "type": "Feature",
      "properties": {
        "norad_id": 66576,
        "name": "STARLINK-35814",
        "group": "last-30-days",
        "lat": 4.7802556890057675,
        "lon": 146.7327434491681,
        "alt_km": 414.2917561814629,
        "timestamp": "2025-12-09T05:43:19.509880+00:00",
        "meta_object_name": "STARLINK-35814",
        "meta_object_id": "2025-268V",
        "meta_epoch": "2025-12-08T20:00:01.999008",
        "meta_mean_motion": 15.52084888,
        "meta_eccentricity": 0.0001452,
        "meta_inclination": 43.0007,
        "meta_ra_of_asc_node": 143.9565,
        "meta_arg_of_pericenter": 269.576,
        "meta_mean_anomaly": 352.6469,
        "meta_ephemeris_type": 0,
        "meta_classification_type": "U",
        "meta_norad_cat_id": 66576,
        "meta_element_set_no": 999,
        "meta_rev_at_epoch": 404,
        "meta_bstar": -0.031998,
        "meta_mean_motion_dot": -0.01763001,
        "meta_mean_motion_ddot": 0,
        "tle_line1": "1 66576U 25268V   25342.83335647 -.01763001  00000+0 -31998-1 0  9998",
        "tle_line2": "2 66576  43.0007 143.9565 0001452 269.5760 352.6469 15.52084888  4048"
      },
      "geometry": {
        "type": "Point",
        "coordinates": [
          146.7327434491681,
          4.7802556890057675
        ]
      }
    },
    {
      "type": "Feature",
      "properties": {
        "norad_id": 66577,
        "name": "STARLINK-35815",
        "group": "last-30-days",
        "lat": 6.080687370741808,
        "lon": 148.14356765371184,
        "alt_km": 414.0762723937514,
        "timestamp": "2025-12-09T05:43:19.509890+00:00",
        "meta_object_name": "STARLINK-35815",
        "meta_object_id": "2025-268W",
        "meta_epoch": "2025-12-08T20:00:01.999008",
        "meta_mean_motion": 15.52087914,
        "meta_eccentricity": 0.0001463,
        "meta_inclination": 43.0006,
        "meta_ra_of_asc_node": 143.9517,
        "meta_arg_of_pericenter": 273.0566,
        "meta_mean_anomaly": 351.0832,
        "meta_ephemeris_type": 0,
        "meta_classification_type": "U",
        "meta_norad_cat_id": 66577,
        "meta_element_set_no": 999,
        "meta_rev_at_epoch": 404,
        "meta_bstar": -0.032123,
        "meta_mean_motion_dot": -0.01769274,
        "meta_mean_motion_ddot": 0,
        "tle_line1": "1 66577U 25268W   25342.83335647 -.01769274  00000+0 -32123-1 0  9998",
        "tle_line2": "2 66577  43.0006 143.9517 0001463 273.0566 351.0832 15.52087914  4041"
      },
      "geometry": {
        "type": "Point",
        "coordinates": [
          148.14356765371184,
          6.080687370741808
        ]
      }
    },
    {
      "type": "Feature",
      "properties": {
        "norad_id": 66578,
        "name": "STARLINK-35743",
        "group": "last-30-days",
        "lat": 7.377123544467747,
        "lon": 149.5608084330651,
        "alt_km": 413.86977655912415,
        "timestamp": "2025-12-09T05:43:19.509900+00:00",
        "meta_object_name": "STARLINK-35743",
        "meta_object_id": "2025-268X",
        "meta_epoch": "2025-12-08T20:00:01.999008",
        "meta_mean_motion": 15.52085404,
        "meta_eccentricity": 0.0001475,
        "meta_inclination": 43.0006,
        "meta_ra_of_asc_node": 143.9468,
        "meta_arg_of_pericenter": 275.5797,
        "meta_mean_anomaly": 350.4775,
        "meta_ephemeris_type": 0,
        "meta_classification_type": "U",
        "meta_norad_cat_id": 66578,
        "meta_element_set_no": 999,
        "meta_rev_at_epoch": 404,
        "meta_bstar": -0.032053,
        "meta_mean_motion_dot": -0.01765713,
        "meta_mean_motion_ddot": 0,
        "tle_line1": "1 66578U 25268X   25342.83335647 -.01765713  00000+0 -32053-1 0  9995",
        "tle_line2": "2 66578  43.0006 143.9468 0001475 275.5797 350.4775 15.52085404  4044"
      },
      "geometry": {
        "type": "Point",
        "coordinates": [
          149.5608084330651,
          7.377123544467747
        ]
      }
    },
    {
      "type": "Feature",
      "properties": {
        "norad_id": 66579,
        "name": "STARLINK-35868",
        "group": "last-30-days",
        "lat": 8.669748386863539,
        "lon": 150.98727368175298,
        "alt_km": 413.7844969383377,
        "timestamp": "2025-12-09T05:43:19.509913+00:00",
        "meta_object_name": "STARLINK-35868",
        "meta_object_id": "2025-268Y",
        "meta_epoch": "2025-12-08T20:00:01.999008",
        "meta_mean_motion": 15.52088443,
        "meta_eccentricity": 0.00016,
        "meta_inclination": 43.0006,
        "meta_ra_of_asc_node": 143.942,
        "meta_arg_of_pericenter": 273.3753,
        "meta_mean_anomaly": 354.5954,
        "meta_ephemeris_type": 0,
        "meta_classification_type": "U",
        "meta_norad_cat_id": 66579,
        "meta_element_set_no": 999,
        "meta_rev_at_epoch": 404,
        "meta_bstar": -0.032105,
        "meta_mean_motion_dot": -0.01768492,
        "meta_mean_motion_ddot": 0,
        "tle_line1": "1 66579U 25268Y   25342.83335647 -.01768492  00000+0 -32105-1 0  9991",
        "tle_line2": "2 66579  43.0006 143.9420 0001600 273.3753 354.5954 15.52088443  4041"
      },
      "geometry": {
        "type": "Point",
        "coordinates": [
          150.98727368175298,
          8.669748386863539
        ]
      }
    },
    {
      "type": "Feature",
      "properties": {
        "norad_id": 66580,
        "name": "STARLINK-35872",
        "group": "last-30-days",
        "lat": 9.95623037246354,
        "lon": 152.42336550931955,
        "alt_km": 413.6827118813944,
        "timestamp": "2025-12-09T05:43:19.509924+00:00",
        "meta_object_name": "STARLINK-35872",
        "meta_object_id": "2025-268Z",
        "meta_epoch": "2025-12-08T20:00:01.999008",
        "meta_mean_motion": 15.52087673,
        "meta_eccentricity": 0.0001461,
        "meta_inclination": 43.0005,
        "meta_ra_of_asc_node": 143.9378,
        "meta_arg_of_pericenter": 270.6566,
        "meta_mean_anomaly": 359.2328,
        "meta_ephemeris_type": 0,
        "meta_classification_type": "U",
        "meta_norad_cat_id": 66580,
        "meta_element_set_no": 999,
        "meta_rev_at_epoch": 404,
        "meta_bstar": -0.032094,
        "meta_mean_motion_dot": -0.01767854,
        "meta_mean_motion_ddot": 0,
        "tle_line1": "1 66580U 25268Z   25342.83335647 -.01767854  00000+0 -32094-1 0  9991",
        "tle_line2": "2 66580  43.0005 143.9378 0001461 270.6566 359.2328 15.52087673  4042"
      },
      "geometry": {
        "type": "Point",
        "coordinates": [
          152.42336550931955,
          9.95623037246354
        ]
      }
    },
    {
      "type": "Feature",
      "properties": {
        "norad_id": 66581,
        "name": "STARLINK-35744",
        "group": "last-30-days",
        "lat": 11.23708038902062,
        "lon": 153.86988193065537,
        "alt_km": 413.5302834382601,
        "timestamp": "2025-12-09T05:43:19.509934+00:00",
        "meta_object_name": "STARLINK-35744",
        "meta_object_id": "2025-268AA",
        "meta_epoch": "2025-12-08T20:00:01.999008",
        "meta_mean_motion": 15.52089552,
        "meta_eccentricity": 0.000153,
        "meta_inclination": 43.0007,
        "meta_ra_of_asc_node": 143.9321,
        "meta_arg_of_pericenter": 271.3923,
        "meta_mean_anomaly": 0.4131,
        "meta_ephemeris_type": 0,
        "meta_classification_type": "U",
        "meta_norad_cat_id": 66581,
        "meta_element_set_no": 999,
        "meta_rev_at_epoch": 399,
        "meta_bstar": -0.032165,
        "meta_mean_motion_dot": -0.01771462,
        "meta_mean_motion_ddot": 0,
        "tle_line1": "1 66581U 25268AA  25342.83335647 -.01771462  00000+0 -32165-1 0  9991",
        "tle_line2": "2 66581  43.0007 143.9321 0001530 271.3923   0.4131 15.52089552  3993"
      },
      "geometry": {
        "type": "Point",
        "coordinates": [
          153.86988193065537,
          11.23708038902062
        ]
      }
    },
    {
      "type": "Feature",
      "properties": {
        "norad_id": 66582,
        "name": "STARLINK-35746",
        "group": "last-30-days",
        "lat": 12.511191532749935,
        "lon": 155.33075464210577,
        "alt_km": 413.3506304884095,
        "timestamp": "2025-12-09T05:43:19.509947+00:00",
        "meta_object_name": "STARLINK-35746",
        "meta_object_id": "2025-268AB",
        "meta_epoch": "2025-12-08T20:00:01.999008",
        "meta_mean_motion": 15.52089793,
        "meta_eccentricity": 0.0001513,
        "meta_inclination": 43.0006,
        "meta_ra_of_asc_node": 143.9273,
        "meta_arg_of_pericenter": 272.6138,
        "meta_mean_anomaly": 1.1102,
        "meta_ephemeris_type": 0,
        "meta_classification_type": "U",
        "meta_norad_cat_id": 66582,
        "meta_element_set_no": 999,
        "meta_rev_at_epoch": 404,
        "meta_bstar": -0.032202,
        "meta_mean_motion_dot": -0.01773283,
        "meta_mean_motion_ddot": 0,
        "tle_line1": "1 66582U 25268AB  25342.83335647 -.01773283  00000+0 -32202-1 0  9997",
        "tle_line2": "2 66582  43.0006 143.9273 0001513 272.6138   1.1102 15.52089793  4042"
      },
      "geometry": {
        "type": "Point",
        "coordinates": [
          155.33075464210577,
          12.511191532749935
        ]
      }
    }
  ]
}